     3.02           N: GNSS NAV DATA    E: GALILEO          RINEX VERSION / TYPE
GR25 V3.22          IGG of WUELS        20160906 235950 UTC PGM / RUN BY / DATE
GAL    6.3500D+01 -6.2500D-02  6.0120D-03  0.0000D+00       IONOSPHERIC CORR
GAUT  0.0000000000D+00-8.881784197D-16 172800 1913          TIME SYSTEM CORR
GPGA -8.4401108325D-10-8.881784197D-16 259200 1913          TIME SYSTEM CORR
    17    18  1929     7                                    LEAP SECONDS
                                                            END OF HEADER
E26 2016 09 07 09 40 00 1.404185313731D-03 4.167901579422D-10 0.000000000000D+00
     1.060000000000D+02-2.500000000000D-01 3.113701126721D-09-1.037406575988D+00
     6.519258022308D-08 2.938226098195D-04 8.031725883484D-06 5.440605024338D+03
     2.940000000000D+05 2.607703208923D-08 1.684241034668D+00 4.097819328308D-08
     9.665541793984D-01 1.709687500000D+02 2.539539666546D+00-5.596661694853D-09
     2.907263956356D-10 5.190000000000D+02 1.913000000000D+03 0.000000000000D+00
     3.120000000000D+00 0.000000000000D+00-1.164153218269D-09-1.396983861923D-09
     2.946640000000D+05
E26 2016 09 07 09 50 00 1.404435432050D-03 4.167901579422D-10 0.000000000000D+00
     1.070000000000D+02-1.218750000000D+00 3.110129549380D-09-9.626301518097D-01
     1.490116119385D-08 2.939848927781D-04 8.093193173409D-06 5.440605421066D+03
     2.946000000000D+05 2.048909664154D-08 1.684237640698D+00 4.470348358154D-08
     9.665543520227D-01 1.697812500000D+02 2.539149049864D+00-5.594518748447D-09
     2.953694461802D-10 5.190000000000D+02 1.913000000000D+03 0.000000000000D+00
     3.120000000000D+00 0.000000000000D+00-1.164153218269D-09-1.396983861923D-09
     2.952640000000D+05
E26 2016 09 07 10 00 00 1.404685492162D-03 4.168043687969D-10 0.000000000000D+00
     1.080000000000D+02-2.125000000000D+00 3.107629445240D-09-8.879732699824D-01
    -3.539025783539D-08 2.941209822893D-04 8.137896656990D-06 5.440605733871D+03
     2.952000000000D+05 1.490116119385D-08 1.684234256969D+00 4.656612873077D-08
     9.665545275729D-01 1.690000000000D+02 2.538877922868D+00-5.592732959776D-09
     2.985838657879D-10 5.190000000000D+02 1.913000000000D+03 0.000000000000D+00
     3.120000000000D+00 0.000000000000D+00-1.164153218269D-09-1.396983861923D-09
     2.958640000000D+05
E26 2016 09 07 10 10 00 1.404935552273D-03 4.168043687969D-10 0.000000000000D+00
     1.090000000000D+02-2.812500000000D+00 3.106557972038D-09-8.134275640774D-01
    -7.636845111847D-08 2.942157443613D-04 8.163973689079D-06 5.440605945587D+03
     2.958000000000D+05 1.117587089539D-08 1.684230871776D+00 4.656612873077D-08
     9.665547016601D-01 1.685625000000D+02 2.538717942535D+00-5.590947171106D-09
     3.014411276615D-10 5.190000000000D+02 1.913000000000D+03 0.000000000000D+00
     3.120000000000D+00 0.000000000000D+00-1.164153218269D-09-1.396983861923D-09
     2.964640000000D+05
E26 2016 09 07 10 20 00 1.405185903423D-03 4.167901579422D-10 0.000000000000D+00
     1.100000000000D+02-3.187500000000D+00 3.107272287506D-09-7.389796352280D-01
    -1.061707735062D-07 2.942589344457D-04 8.175149559975D-06 5.440606050491D+03
     2.964000000000D+05 5.587935447693D-09 1.684227488047D+00 4.470348358154D-08
     9.665548786732D-01 1.684062500000D+02 2.538655699760D+00-5.588804224700D-09
     3.042983895351D-10 5.190000000000D+02 1.913000000000D+03 0.000000000000D+00
     3.120000000000D+00 0.000000000000D+00-1.164153218269D-09-1.396983861923D-09
     2.970640000000D+05
E26 2016 09 07 10 30 00 1.405435556080D-03 4.167901579422D-10 0.000000000000D+00
     1.110000000000D+02-3.156250000000D+00 3.109415233911D-09-6.645913524746D-01
    -1.192092895508D-07 2.942573046312D-04 8.177012205124D-06 5.440606040955D+03
     2.970000000000D+05 1.862645149231D-09 1.684224110169D+00 4.470348358154D-08
     9.665550615380D-01 1.684687500000D+02 2.538653079674D+00-5.587018436029D-09
     3.064413359402D-10 5.190000000000D+02 1.913000000000D+03 0.000000000000D+00
     3.120000000000D+00 0.000000000000D+00-1.164153218269D-09-1.396983861923D-09
     2.976640000000D+05
E26 2016 09 07 10 40 00 1.405685790814D-03 4.167901579422D-10 0.000000000000D+00
     1.120000000000D+02-2.687500000000D+00 3.112986811253D-09-5.902923603890D-01
    -1.136213541031D-07 2.942007267848D-04 8.177012205124D-06 5.440605922699D+03
     2.976000000000D+05-1.862645149231D-09 1.684220764475D+00 4.284083843231D-08
     9.665552473286D-01 1.685625000000D+02 2.538739690276D+00-5.584875489624D-09
     3.071556514086D-10 5.190000000000D+02 1.913000000000D+03 0.000000000000D+00
     3.120000000000D+00 0.000000000000D+00-1.164153218269D-09-1.396983861923D-09
     2.982640000000D+05
E26 2016 09 07 10 50 00 1.405935792718D-03 4.167901579422D-10 0.000000000000D+00
     1.130000000000D+02-1.812500000000D+00 3.118701335000D-09-5.159757342890D-01
    -9.126961231232D-08 2.940917620435D-04 8.175149559975D-06 5.440605695724D+03
     2.982000000000D+05-3.725290298462D-09 1.684217395375D+00 3.911554813385D-08
     9.665554360450D-01 1.685625000000D+02 2.538808697584D+00-5.583089700953D-09
     3.089414400796D-10 5.190000000000D+02 1.913000000000D+03 0.000000000000D+00
     3.120000000000D+00 0.000000000000D+00-1.164153218269D-09-1.396983861923D-09
     2.988640000000D+05
E26 2016 09 07 11 00 00 1.406185678206D-03 4.167901579422D-10 0.000000000000D+00
     1.140000000000D+02-5.937500000000D-01 3.126201647418D-09-4.416576013833D-01
    -5.587935447693D-08 2.939404221252D-04 8.178874850273D-06 5.440605388641D+03
     2.988000000000D+05-3.725290298462D-09 1.684214036515D+00 3.725290298462D-08
     9.665556203727D-01 1.684062500000D+02 2.538876171755D+00-5.582018227751D-09
     3.096557555480D-10 5.190000000000D+02 1.913000000000D+03 0.000000000000D+00
     3.120000000000D+00 0.000000000000D+00-1.164153218269D-09-1.396983861923D-09
     2.994640000000D+05
E26 2016 09 07 11 10 00 1.406435796525D-03 4.167901579422D-10 0.000000000000D+00
     1.150000000000D+02 7.812500000000D-01 3.134773433039D-09-3.672873066706D-01
    -1.117587089539D-08 2.937536919490D-04 8.191913366318D-06 5.440605012894D+03
     2.994000000000D+05-3.725290298462D-09 1.684210684970D+00 3.725290298462D-08
     9.665558076262D-01 1.680000000000D+02 2.538891484118D+00-5.581303912282D-09
     3.100129132822D-10 5.190000000000D+02 1.913000000000D+03 0.000000000000D+00
     3.120000000000D+00 0.000000000000D+00-1.164153218269D-09-1.396983861923D-09
     3.000640000000D+05
E26 2016 09 07 11 20 00 1.406685798429D-03 4.167901579422D-10 0.000000000000D+00
     1.160000000000D+02 2.250000000000D+00 3.144416691862D-09-2.928683187296D-01
     3.725290298462D-08 2.935483353212D-04 8.216127753258D-06 5.440604600906D+03
     3.000000000000D+05-3.725290298462D-09 1.684207336350D+00 3.725290298462D-08
     9.665559978055D-01 1.672812500000D+02 2.538858103254D+00-5.581303912282D-09
     3.100129132822D-10 5.190000000000D+02 1.913000000000D+03 0.000000000000D+00
     3.120000000000D+00 0.000000000000D+00-1.164153218269D-09-1.396983861923D-09
     3.006640000000D+05
E19 2016 09 07 11 20 00 1.065607648343D-06 3.979039320257D-13 0.000000000000D+00
     1.160000000000D+02 3.906250000000D+00 3.056198731516D-09 1.838713850612D+00
     1.955777406693D-07 2.639638260007D-04 1.104362308979D-05 5.440618413925D+03
     3.000000000000D+05 3.539025783539D-08-2.506590049583D+00-4.656612873077D-08
     9.589032085447D-01 1.000312500000D+02-2.382074242474D+00-5.523087201608D-09
    -2.507247294057D-10 5.190000000000D+02 1.913000000000D+03 0.000000000000D+00
     3.120000000000D+00 0.000000000000D+00-1.140870153904D-08-1.257285475731D-08
     3.009250000000D+05
E26 2016 09 07 11 30 00 1.406935683917D-03 4.167901579422D-10 0.000000000000D+00
     1.170000000000D+02 3.656250000000D+00 3.154774266154D-09-2.183990195729D-01
     8.195638656616D-08 2.933386713266D-04 8.247792720795D-06 5.440604173660D+03
     3.006000000000D+05-3.725290298462D-09 1.684203992119D+00 3.725290298462D-08
     9.665561835961D-01 1.663437500000D+02 2.538774434580D+00-5.581661070016D-09
     3.096557555480D-10 5.190000000000D+02 1.913000000000D+03 0.000000000000D+00
     3.120000000000D+00 0.000000000000D+00-1.164153218269D-09-1.396983861923D-09
     3.012640000000D+05
E19 2016 09 07 11 30 00 1.067295670509D-06 3.979039320257D-13 0.000000000000D+00
     1.170000000000D+02 4.218750000000D+00 3.059055993389D-09 1.913584413569D+00
     2.104789018631D-07 2.640675520524D-04 1.109950244427D-05 5.440618082047D+03
     3.006000000000D+05 3.911554813385D-08-2.506593374795D+00-4.842877388000D-08
     9.589030724933D-01 9.878125000000D+01-2.382559755726D+00-5.519872782000D-09
    -2.503675716715D-10 5.190000000000D+02 1.913000000000D+03 0.000000000000D+00
     3.120000000000D+00 0.000000000000D+00-1.140870153904D-08-1.257285475731D-08
     3.012640000000D+05
E24 2016 09 07 11 50 00-6.669884314761D-04-6.217248937901D-11 0.000000000000D+00
     2.280000000000D+02-3.531250000000D+00 2.831189358972D-09 1.677765293202D+00
    -9.499490261078D-08 1.298851566389D-04 3.702938556671D-06 5.440608337402D+03
     3.018000000000D+05-1.490116119385D-08-4.125848475293D-01 4.097819328308D-08
     9.985344112520D-01 2.758750000000D+02 5.781820685182D-01-5.591661486574D-09
    -1.357199389945D-11 5.190000000000D+02 1.913000000000D+03 0.000000000000D+00
     3.120000000000D+00 0.000000000000D+00 4.097819328308D-08 4.586763679981D-08
     3.018040000000D+05
E26 2016 09 07 11 50 00 1.407435804140D-03 4.167901579422D-10 0.000000000000D+00
     1.190000000000D+02 5.718750000000D+00 3.175489414737D-09-6.932067747303D-02
     1.490116119385D-07 2.929563634098D-04 8.318573236465D-06 5.440603395462D+03
     3.018000000000D+05-5.587935447693D-09 1.684197296343D+00 4.097819328308D-08
     9.665565434740D-01 1.640937500000D+02 2.538467420740D+00-5.585232647358D-09
     3.089414400796D-10 5.190000000000D+02 1.913000000000D+03 0.000000000000D+00
     3.120000000000D+00 0.000000000000D+00-1.164153218269D-09-1.396983861923D-09
     3.024640000000D+05
